IRIDIUM 33 DEB          
1 34148U 97051EB  17345.93907804  .00017246  00000-0  14128-2 0  9990
2 34148  86.3898 172.0514 0007450 163.2309 196.9171 14.99168235468329
